{
"type": "FeatureCollection",
"name": "cities",
"crs": { "type": "name", "properties": { "name": "urn:ogc:def:crs:OGC:1.3:CRS84" } },
"features": [
{ "type": "Feature", "properties": { "city": "??", "pop": 2189 }, "geometry": { "type": "Point", "coordinates": [ 116.4, 39.9 ] } },
{ "type": "Feature", "properties": { "city": "??", "pop": 2487 }, "geometry": { "type": "Point", "coordinates": [ 121.5, 31.2 ] } },
{ "type": "Feature", "properties": { "city": "??", "pop": 1868 }, "geometry": { "type": "Point", "coordinates": [ 113.3, 23.1 ] } }
]
}
