{"type": "FeatureCollection", "features": [{"type": "Feature", "properties": {"name": "东城区", "adcode": 110101, "level": "district"}, "geometry": {"type": "Point", "coordinates": [116.418757, 39.917544]}}, {"type": "Feature", "properties": {"name": "西城区", "adcode": 110102, "level": "district"}, "geometry": {"type": "Point", "coordinates": [116.366794, 39.915309]}}, {"type": "Feature", "properties": {"name": "朝阳区", "adcode": 110105, "level": "district"}, "geometry": {"type": "Point", "coordinates": [116.486409, 39.921489]}}, {"type": "Feature", "properties": {"name": "丰台区", "adcode": 110106, "level": "district"}, "geometry": {"type": "Point", "coordinates": [116.286968, 39.863642]}}, {"type": "Feature", "properties": {"name": "石景山区", "adcode": 110107, "level": "district"}, "geometry": {"type": "Point", "coordinates": [116.195445, 39.914601]}}, {"type": "Feature", "properties": {"name": "海淀区", "adcode": 110108, "level": "district"}, "geometry": {"type": "Point", "coordinates": [116.310316, 39.956074]}}, {"type": "Feature", "properties": {"name": "门头沟区", "adcode": 110109, "level": "district"}, "geometry": {"type": "Point", "coordinates": [116.105381, 39.937183]}}, {"type": "Feature", "properties": {"name": "房山区", "adcode": 110111, "level": "district"}, "geometry": {"type": "Point", "coordinates": [116.139157, 39.735535]}}, {"type": "Feature", "properties": {"name": "通州区", "adcode": 110112, "level": "district"}, "geometry": {"type": "Point", "coordinates": [116.658603, 39.902486]}}, {"type": "Feature", "properties": {"name": "顺义区", "adcode": 110113, "level": "district"}, "geometry": {"type": "Point", "coordinates": [116.653525, 40.128936]}}, {"type": "Feature", "properties": {"name": "昌平区", "adcode": 110114, "level": "district"}, "geometry": {"type": "Point", "coordinates": [116.235906, 40.218085]}}, {"type": "Feature", "properties": {"name": "大兴区", "adcode": 110115, "level": "district"}, "geometry": {"type": "Point", "coordinates": [116.338033, 39.728908]}}, {"type": "Feature", "properties": {"name": "怀柔区", "adcode": 110116, "level": "district"}, "geometry": {"type": "Point", "coordinates": [116.637122, 40.324272]}}, {"type": "Feature", "properties": {"name": "平谷区", "adcode": 110117, "level": "district"}, "geometry": {"type": "Point", "coordinates": [117.112335, 40.144783]}}, {"type": "Feature", "properties": {"name": "密云区", "adcode": 110118, "level": "district"}, "geometry": {"type": "Point", "coordinates": [116.843352, 40.377362]}}, {"type": "Feature", "properties": {"name": "延庆区", "adcode": 110119, "level": "district"}, "geometry": {"type": "Point", "coordinates": [115.985006, 40.465325]}}]}