{"type": "FeatureCollection", "features": [{"type": "Feature", "properties": {"name": "北京市", "adcode": 110000, "level": "province"}, "geometry": {"type": "Point", "coordinates": [116.405285, 39.904989]}}, {"type": "Feature", "properties": {"name": "天津市", "adcode": 120000, "level": "province"}, "geometry": {"type": "Point", "coordinates": [117.190182, 39.125596]}}, {"type": "Feature", "properties": {"name": "河北省", "adcode": 130000, "level": "province"}, "geometry": {"type": "Point", "coordinates": [114.502461, 38.045474]}}, {"type": "Feature", "properties": {"name": "山西省", "adcode": 140000, "level": "province"}, "geometry": {"type": "Point", "coordinates": [112.549248, 37.857014]}}, {"type": "Feature", "properties": {"name": "内蒙古自治区", "adcode": 150000, "level": "province"}, "geometry": {"type": "Point", "coordinates": [111.670801, 40.818311]}}, {"type": "Feature", "properties": {"name": "辽宁省", "adcode": 210000, "level": "province"}, "geometry": {"type": "Point", "coordinates": [123.429096, 41.796767]}}, {"type": "Feature", "properties": {"name": "吉林省", "adcode": 220000, "level": "province"}, "geometry": {"type": "Point", "coordinates": [125.3245, 43.886841]}}, {"type": "Feature", "properties": {"name": "黑龙江省", "adcode": 230000, "level": "province"}, "geometry": {"type": "Point", "coordinates": [126.642464, 45.756967]}}, {"type": "Feature", "properties": {"name": "上海市", "adcode": 310000, "level": "province"}, "geometry": {"type": "Point", "coordinates": [121.472644, 31.231706]}}, {"type": "Feature", "properties": {"name": "江苏省", "adcode": 320000, "level": "province"}, "geometry": {"type": "Point", "coordinates": [118.767413, 32.041544]}}, {"type": "Feature", "properties": {"name": "浙江省", "adcode": 330000, "level": "province"}, "geometry": {"type": "Point", "coordinates": [120.153576, 30.287459]}}, {"type": "Feature", "properties": {"name": "安徽省", "adcode": 340000, "level": "province"}, "geometry": {"type": "Point", "coordinates": [117.283042, 31.86119]}}, {"type": "Feature", "properties": {"name": "福建省", "adcode": 350000, "level": "province"}, "geometry": {"type": "Point", "coordinates": [119.306239, 26.075302]}}, {"type": "Feature", "properties": {"name": "江西省", "adcode": 360000, "level": "province"}, "geometry": {"type": "Point", "coordinates": [115.892151, 28.676493]}}, {"type": "Feature", "properties": {"name": "山东省", "adcode": 370000, "level": "province"}, "geometry": {"type": "Point", "coordinates": [117.000923, 36.675807]}}, {"type": "Feature", "properties": {"name": "河南省", "adcode": 410000, "level": "province"}, "geometry": {"type": "Point", "coordinates": [113.665412, 34.757975]}}, {"type": "Feature", "properties": {"name": "湖北省", "adcode": 420000, "level": "province"}, "geometry": {"type": "Point", "coordinates": [114.298572, 30.584355]}}, {"type": "Feature", "properties": {"name": "湖南省", "adcode": 430000, "level": "province"}, "geometry": {"type": "Point", "coordinates": [112.982279, 28.19409]}}, {"type": "Feature", "properties": {"name": "广东省", "adcode": 440000, "level": "province"}, "geometry": {"type": "Point", "coordinates": [113.280637, 23.125178]}}, {"type": "Feature", "properties": {"name": "广西壮族自治区", "adcode": 450000, "level": "province"}, "geometry": {"type": "Point", "coordinates": [108.320004, 22.82402]}}, {"type": "Feature", "properties": {"name": "海南省", "adcode": 460000, "level": "province"}, "geometry": {"type": "Point", "coordinates": [110.33119, 20.031971]}}, {"type": "Feature", "properties": {"name": "重庆市", "adcode": 500000, "level": "province"}, "geometry": {"type": "Point", "coordinates": [106.504962, 29.533155]}}, {"type": "Feature", "properties": {"name": "四川省", "adcode": 510000, "level": "province"}, "geometry": {"type": "Point", "coordinates": [104.065735, 30.659462]}}, {"type": "Feature", "properties": {"name": "贵州省", "adcode": 520000, "level": "province"}, "geometry": {"type": "Point", "coordinates": [106.713478, 26.578343]}}, {"type": "Feature", "properties": {"name": "云南省", "adcode": 530000, "level": "province"}, "geometry": {"type": "Point", "coordinates": [102.712251, 25.040609]}}, {"type": "Feature", "properties": {"name": "西藏自治区", "adcode": 540000, "level": "province"}, "geometry": {"type": "Point", "coordinates": [91.132212, 29.660361]}}, {"type": "Feature", "properties": {"name": "陕西省", "adcode": 610000, "level": "province"}, "geometry": {"type": "Point", "coordinates": [108.948024, 34.263161]}}, {"type": "Feature", "properties": {"name": "甘肃省", "adcode": 620000, "level": "province"}, "geometry": {"type": "Point", "coordinates": [103.823557, 36.058039]}}, {"type": "Feature", "properties": {"name": "青海省", "adcode": 630000, "level": "province"}, "geometry": {"type": "Point", "coordinates": [101.778916, 36.623178]}}, {"type": "Feature", "properties": {"name": "宁夏回族自治区", "adcode": 640000, "level": "province"}, "geometry": {"type": "Point", "coordinates": [106.278179, 38.46637]}}, {"type": "Feature", "properties": {"name": "新疆维吾尔自治区", "adcode": 650000, "level": "province"}, "geometry": {"type": "Point", "coordinates": [87.617733, 43.792818]}}, {"type": "Feature", "properties": {"name": "台湾省", "adcode": 710000, "level": "province"}, "geometry": {"type": "Point", "coordinates": [121.509062, 25.044332]}}, {"type": "Feature", "properties": {"name": "香港特别行政区", "adcode": 810000, "level": "province"}, "geometry": {"type": "Point", "coordinates": [114.173355, 22.320048]}}, {"type": "Feature", "properties": {"name": "澳门特别行政区", "adcode": 820000, "level": "province"}, "geometry": {"type": "Point", "coordinates": [113.54909, 22.198951]}}]}