{"type": "FeatureCollection", "features": [{"type": "Feature", "properties": {"name": "长江", "kind": "river"}, "geometry": {"type": "LineString", "coordinates": [[90.5, 33.3], [97.2, 31.6], [99.7, 30.5], [101.8, 29.0], [104.1, 28.8], [107.4, 29.9], [109.3, 30.5], [111.3, 30.3], [113.4, 30.2], [114.3, 30.6], [116.4, 30.7], [118.6, 31.0], [120.9, 31.2], [121.9, 31.4]]}}, {"type": "Feature", "properties": {"name": "黄河", "kind": "river"}, "geometry": {"type": "LineString", "coordinates": [[96.2, 34.7], [99.6, 36.1], [103.8, 36.1], [106.3, 36.5], [108.7, 37.9], [110.2, 38.8], [111.4, 40.2], [113.5, 40.0], [114.8, 38.9], [116.5, 38.0], [118.4, 37.4], [119.2, 37.7]]}}, {"type": "Feature", "properties": {"name": "珠江", "kind": "river"}, "geometry": {"type": "LineString", "coordinates": [[103.6, 24.0], [105.5, 23.6], [107.5, 23.8], [110.2, 23.6], [112.0, 23.1], [113.2, 23.1], [113.6, 22.8]]}}, {"type": "Feature", "properties": {"name": "淮河", "kind": "river"}, "geometry": {"type": "LineString", "coordinates": [[112.3, 32.4], [114.0, 32.7], [116.0, 33.0], [118.3, 33.1], [120.3, 33.9]]}}, {"type": "Feature", "properties": {"name": "海河", "kind": "river"}, "geometry": {"type": "LineString", "coordinates": [[114.2, 38.0], [116.3, 39.0], [117.2, 39.1]]}}, {"type": "Feature", "properties": {"name": "松花江", "kind": "river"}, "geometry": {"type": "LineString", "coordinates": [[125.0, 44.5], [126.0, 45.5], [128.0, 45.9], [130.5, 46.5], [132.0, 47.7]]}}]}