{"type": "FeatureCollection", "features": [{"type": "Feature", "properties": {"name": "成都市", "adcode": 510100, "level": "city"}, "geometry": {"type": "Point", "coordinates": [104.065735, 30.659462]}}, {"type": "Feature", "properties": {"name": "自贡市", "adcode": 510300, "level": "city"}, "geometry": {"type": "Point", "coordinates": [104.773447, 29.352765]}}, {"type": "Feature", "properties": {"name": "攀枝花市", "adcode": 510400, "level": "city"}, "geometry": {"type": "Point", "coordinates": [101.716007, 26.580446]}}, {"type": "Feature", "properties": {"name": "泸州市", "adcode": 510500, "level": "city"}, "geometry": {"type": "Point", "coordinates": [105.443348, 28.889138]}}, {"type": "Feature", "properties": {"name": "德阳市", "adcode": 510600, "level": "city"}, "geometry": {"type": "Point", "coordinates": [104.398651, 31.127991]}}, {"type": "Feature", "properties": {"name": "绵阳市", "adcode": 510700, "level": "city"}, "geometry": {"type": "Point", "coordinates": [104.741722, 31.46402]}}, {"type": "Feature", "properties": {"name": "广元市", "adcode": 510800, "level": "city"}, "geometry": {"type": "Point", "coordinates": [105.829757, 32.433668]}}, {"type": "Feature", "properties": {"name": "遂宁市", "adcode": 510900, "level": "city"}, "geometry": {"type": "Point", "coordinates": [105.571331, 30.513311]}}, {"type": "Feature", "properties": {"name": "内江市", "adcode": 511000, "level": "city"}, "geometry": {"type": "Point", "coordinates": [105.066138, 29.58708]}}, {"type": "Feature", "properties": {"name": "乐山市", "adcode": 511100, "level": "city"}, "geometry": {"type": "Point", "coordinates": [103.761263, 29.582024]}}, {"type": "Feature", "properties": {"name": "南充市", "adcode": 511300, "level": "city"}, "geometry": {"type": "Point", "coordinates": [106.082974, 30.795281]}}, {"type": "Feature", "properties": {"name": "眉山市", "adcode": 511400, "level": "city"}, "geometry": {"type": "Point", "coordinates": [103.831788, 30.048318]}}, {"type": "Feature", "properties": {"name": "宜宾市", "adcode": 511500, "level": "city"}, "geometry": {"type": "Point", "coordinates": [104.630825, 28.760189]}}, {"type": "Feature", "properties": {"name": "广安市", "adcode": 511600, "level": "city"}, "geometry": {"type": "Point", "coordinates": [106.633369, 30.456398]}}, {"type": "Feature", "properties": {"name": "达州市", "adcode": 511700, "level": "city"}, "geometry": {"type": "Point", "coordinates": [107.502262, 31.209484]}}, {"type": "Feature", "properties": {"name": "雅安市", "adcode": 511800, "level": "city"}, "geometry": {"type": "Point", "coordinates": [103.001033, 29.987722]}}, {"type": "Feature", "properties": {"name": "巴中市", "adcode": 511900, "level": "city"}, "geometry": {"type": "Point", "coordinates": [106.753669, 31.858809]}}, {"type": "Feature", "properties": {"name": "资阳市", "adcode": 512000, "level": "city"}, "geometry": {"type": "Point", "coordinates": [104.641917, 30.122211]}}, {"type": "Feature", "properties": {"name": "阿坝藏族羌族自治州", "adcode": 513200, "level": "city"}, "geometry": {"type": "Point", "coordinates": [102.221374, 31.899792]}}, {"type": "Feature", "properties": {"name": "甘孜藏族自治州", "adcode": 513300, "level": "city"}, "geometry": {"type": "Point", "coordinates": [101.963815, 30.050663]}}, {"type": "Feature", "properties": {"name": "凉山彝族自治州", "adcode": 513400, "level": "city"}, "geometry": {"type": "Point", "coordinates": [102.258746, 27.886762]}}]}