{"type": "FeatureCollection", "features": [{"type": "Feature", "properties": {"name": "杭州市", "adcode": 330100, "level": "city"}, "geometry": {"type": "Point", "coordinates": [120.153576, 30.287459]}}, {"type": "Feature", "properties": {"name": "宁波市", "adcode": 330200, "level": "city"}, "geometry": {"type": "Point", "coordinates": [121.549792, 29.868388]}}, {"type": "Feature", "properties": {"name": "温州市", "adcode": 330300, "level": "city"}, "geometry": {"type": "Point", "coordinates": [120.672111, 28.000575]}}, {"type": "Feature", "properties": {"name": "嘉兴市", "adcode": 330400, "level": "city"}, "geometry": {"type": "Point", "coordinates": [120.750865, 30.762653]}}, {"type": "Feature", "properties": {"name": "湖州市", "adcode": 330500, "level": "city"}, "geometry": {"type": "Point", "coordinates": [120.102398, 30.867198]}}, {"type": "Feature", "properties": {"name": "绍兴市", "adcode": 330600, "level": "city"}, "geometry": {"type": "Point", "coordinates": [120.582112, 29.997117]}}, {"type": "Feature", "properties": {"name": "金华市", "adcode": 330700, "level": "city"}, "geometry": {"type": "Point", "coordinates": [119.649506, 29.089524]}}, {"type": "Feature", "properties": {"name": "衢州市", "adcode": 330800, "level": "city"}, "geometry": {"type": "Point", "coordinates": [118.87263, 28.941708]}}, {"type": "Feature", "properties": {"name": "舟山市", "adcode": 330900, "level": "city"}, "geometry": {"type": "Point", "coordinates": [122.106863, 30.016028]}}, {"type": "Feature", "properties": {"name": "台州市", "adcode": 331000, "level": "city"}, "geometry": {"type": "Point", "coordinates": [121.428599, 28.661378]}}, {"type": "Feature", "properties": {"name": "丽水市", "adcode": 331100, "level": "city"}, "geometry": {"type": "Point", "coordinates": [119.921786, 28.451993]}}]}